[{"OBJECT_NAME":"LIZZIESAT-2 (LS-2)","OBJECT_ID":"2024-247G","EPOCH":"2026-03-09T11:47:37.199328","MEAN_MOTION":15.28222796,"ECCENTRICITY":0.00040927,"INCLINATION":44.9909,"RA_OF_ASC_NODE":117.0823,"ARG_OF_PERICENTER":327.5136,"MEAN_ANOMALY":32.5495,"EPHEMERIS_TYPE":0,"CLASSIFICATION_TYPE":"U","NORAD_CAT_ID":62383,"ELEMENT_SET_NO":999,"REV_AT_EPOCH":6771,"BSTAR":0.00034516624,"MEAN_MOTION_DOT":9.388e-5,"MEAN_MOTION_DDOT":0},{"OBJECT_NAME":"STARLINK-35433","OBJECT_ID":"2025-223S","EPOCH":"2026-03-09T20:35:57.256512","MEAN_MOTION":15.30228177,"ECCENTRICITY":9.071e-5,"INCLINATION":53.1583,"RA_OF_ASC_NODE":293.2368,"ARG_OF_PERICENTER":114.0354,"MEAN_ANOMALY":246.0741,"EPHEMERIS_TYPE":0,"CLASSIFICATION_TYPE":"U","NORAD_CAT_ID":65870,"ELEMENT_SET_NO":999,"REV_AT_EPOCH":2424,"BSTAR":0.0015415281,"MEAN_MOTION_DOT":0.00045617,"MEAN_MOTION_DDOT":0}]
